[{"OBJECT_NAME":"STARLINK-6218","OBJECT_ID":"2023-099AS","EPOCH":"2025-11-13T12:37:41.049120","MEAN_MOTION":15.02547769,"ECCENTRICITY":0.000126,"INCLINATION":43.0034,"RA_OF_ASC_NODE":147.0449,"ARG_OF_PERICENTER":243.8809,"MEAN_ANOMALY":116.1904,"EPHEMERIS_TYPE":0,"CLASSIFICATION_TYPE":"U","NORAD_CAT_ID":57368,"ELEMENT_SET_NO":999,"REV_AT_EPOCH":12879,"BSTAR":0.0003113,"MEAN_MOTION_DOT":4.005e-5,"MEAN_MOTION_DDOT":0},{"OBJECT_NAME":"STARLINK-6168","OBJECT_ID":"2023-099AT","EPOCH":"2025-11-13T12:50:27.233088","MEAN_MOTION":15.02545508,"ECCENTRICITY":0.000123,"INCLINATION":43.0028,"RA_OF_ASC_NODE":147.1144,"ARG_OF_PERICENTER":262.8616,"MEAN_ANOMALY":97.2087,"EPHEMERIS_TYPE":0,"CLASSIFICATION_TYPE":"U","NORAD_CAT_ID":57369,"ELEMENT_SET_NO":999,"REV_AT_EPOCH":12879,"BSTAR":0.00017802,"MEAN_MOTION_DOT":2.202e-5,"MEAN_MOTION_DDOT":0},{"OBJECT_NAME":"STARLINK-5353","OBJECT_ID":"2023-099AU","EPOCH":"2025-11-13T22:02:28.259232","MEAN_MOTION":15.02532367,"ECCENTRICITY":9.815e-5,"INCLINATION":43.002,"RA_OF_ASC_NODE":144.8242,"ARG_OF_PERICENTER":257.7068,"MEAN_ANOMALY":102.3664,"EPHEMERIS_TYPE":0,"CLASSIFICATION_TYPE":"U","NORAD_CAT_ID":57370,"ELEMENT_SET_NO":999,"REV_AT_EPOCH":12885,"BSTAR":-5.0928985e-5,"MEAN_MOTION_DOT":-8.91e-6,"MEAN_MOTION_DDOT":0},{"OBJECT_NAME":"STARLINK-6032","OBJECT_ID":"2023-099AV","EPOCH":"2025-11-13T14:23:00.232800","MEAN_MOTION":15.02531276,"ECCENTRICITY":0.0001299,"INCLINATION":43.001,"RA_OF_ASC_NODE":146.734,"ARG_OF_PERICENTER":271.9123,"MEAN_ANOMALY":88.1571,"EPHEMERIS_TYPE":0,"CLASSIFICATION_TYPE":"U","NORAD_CAT_ID":57371,"ELEMENT_SET_NO":999,"REV_AT_EPOCH":12880,"BSTAR":-5.5983e-5,"MEAN_MOTION_DOT":-9.6e-6,"MEAN_MOTION_DDOT":0},{"OBJECT_NAME":"STARLINK-5975","OBJECT_ID":"2023-099AW","EPOCH":"2025-11-13T21:51:17.225856","MEAN_MOTION":15.02523266,"ECCENTRICITY":0.00011178,"INCLINATION":43.0024,"RA_OF_ASC_NODE":144.7585,"ARG_OF_PERICENTER":276.3981,"MEAN_ANOMALY":83.6734,"EPHEMERIS_TYPE":0,"CLASSIFICATION_TYPE":"U","NORAD_CAT_ID":57372,"ELEMENT_SET_NO":999,"REV_AT_EPOCH":12885,"BSTAR":-0.0001038823,"MEAN_MOTION_DOT":-1.606e-5,"MEAN_MOTION_DDOT":0},{"OBJECT_NAME":"STARLINK-6370","OBJECT_ID":"2023-099AX","EPOCH":"2025-11-13T21:35:27.491136","MEAN_MOTION":15.0253,"ECCENTRICITY":0.00014634,"INCLINATION":43.004,"RA_OF_ASC_NODE":145.5366,"ARG_OF_PERICENTER":266.1511,"MEAN_ANOMALY":93.9164,"EPHEMERIS_TYPE":0,"CLASSIFICATION_TYPE":"U","NORAD_CAT_ID":57373,"ELEMENT_SET_NO":999,"REV_AT_EPOCH":12884,"BSTAR":-4.2857758e-5,"MEAN_MOTION_DOT":-7.82e-6,"MEAN_MOTION_DDOT":0},{"OBJECT_NAME":"STARLINK-6369","OBJECT_ID":"2023-099AY","EPOCH":"2025-11-13T12:54:01.372896","MEAN_MOTION":15.02551369,"ECCENTRICITY":0.0001691,"INCLINATION":43.0014,"RA_OF_ASC_NODE":134.1176,"ARG_OF_PERICENTER":269.9233,"MEAN_ANOMALY":90.1415,"EPHEMERIS_TYPE":0,"CLASSIFICATION_TYPE":"U","NORAD_CAT_ID":57374,"ELEMENT_SET_NO":999,"REV_AT_EPOCH":12894,"BSTAR":1.5452e-5,"MEAN_MOTION_DOT":5.0e-8,"MEAN_MOTION_DDOT":0},{"OBJECT_NAME":"STARLINK-6363","OBJECT_ID":"2023-099AZ","EPOCH":"2025-11-13T22:00:51.393600","MEAN_MOTION":15.02552851,"ECCENTRICITY":0.00021229,"INCLINATION":43.0061,"RA_OF_ASC_NODE":144.8213,"ARG_OF_PERICENTER":270.9149,"MEAN_ANOMALY":89.145,"EPHEMERIS_TYPE":0,"CLASSIFICATION_TYPE":"U","NORAD_CAT_ID":57375,"ELEMENT_SET_NO":999,"REV_AT_EPOCH":12885,"BSTAR":-0.00027822888,"MEAN_MOTION_DOT":-3.962e-5,"MEAN_MOTION_DDOT":0},{"OBJECT_NAME":"STARLINK-6367","OBJECT_ID":"2023-099BA","EPOCH":"2025-11-13T13:47:50.070048","MEAN_MOTION":15.02553284,"ECCENTRICITY":4.1e-5,"INCLINATION":42.9995,"RA_OF_ASC_NODE":146.5524,"ARG_OF_PERICENTER":230.3985,"MEAN_ANOMALY":129.6821,"EPHEMERIS_TYPE":0,"CLASSIFICATION_TYPE":"U","NORAD_CAT_ID":57376,"ELEMENT_SET_NO":999,"REV_AT_EPOCH":12880,"BSTAR":0.00080622,"MEAN_MOTION_DOT":0.00010709,"MEAN_MOTION_DDOT":0},{"OBJECT_NAME":"STARLINK-6358","OBJECT_ID":"2023-099BB","EPOCH":"2025-11-13T21:52:50.493792","MEAN_MOTION":15.02559203,"ECCENTRICITY":0.00014634,"INCLINATION":43.0028,"RA_OF_ASC_NODE":144.7797,"ARG_OF_PERICENTER":268.2514,"MEAN_ANOMALY":91.816,"EPHEMERIS_TYPE":0,"CLASSIFICATION_TYPE":"U","NORAD_CAT_ID":57377,"ELEMENT_SET_NO":999,"REV_AT_EPOCH":12885,"BSTAR":0.00029126625,"MEAN_MOTION_DOT":3.735e-5,"MEAN_MOTION_DDOT":0},{"OBJECT_NAME":"STARLINK-6364","OBJECT_ID":"2023-099BC","EPOCH":"2025-11-13T19:10:55.922304","MEAN_MOTION":15.02530611,"ECCENTRICITY":0.00013193,"INCLINATION":43.0017,"RA_OF_ASC_NODE":119.6416,"ARG_OF_PERICENTER":275.6549,"MEAN_ANOMALY":84.4142,"EPHEMERIS_TYPE":0,"CLASSIFICATION_TYPE":"U","NORAD_CAT_ID":57378,"ELEMENT_SET_NO":999,"REV_AT_EPOCH":12987,"BSTAR":-4.7175131e-5,"MEAN_MOTION_DOT":-8.41e-6,"MEAN_MOTION_DDOT":0},{"OBJECT_NAME":"STARLINK-6361","OBJECT_ID":"2023-099BD","EPOCH":"2025-11-13T21:48:03.550752","MEAN_MOTION":15.02535789,"ECCENTRICITY":0.00012526,"INCLINATION":43.0016,"RA_OF_ASC_NODE":144.7545,"ARG_OF_PERICENTER":255.549,"MEAN_ANOMALY":104.5213,"EPHEMERIS_TYPE":0,"CLASSIFICATION_TYPE":"U","NORAD_CAT_ID":57379,"ELEMENT_SET_NO":999,"REV_AT_EPOCH":12885,"BSTAR":0.00027658611,"MEAN_MOTION_DOT":3.534e-5,"MEAN_MOTION_DDOT":0},{"OBJECT_NAME":"STARLINK-6366","OBJECT_ID":"2023-099BE","EPOCH":"2025-11-13T12:46:25.303584","MEAN_MOTION":15.02543419,"ECCENTRICITY":0.0001434,"INCLINATION":43.0017,"RA_OF_ASC_NODE":121.0707,"ARG_OF_PERICENTER":277.29,"MEAN_ANOMALY":82.7779,"EPHEMERIS_TYPE":0,"CLASSIFICATION_TYPE":"U","NORAD_CAT_ID":57380,"ELEMENT_SET_NO":999,"REV_AT_EPOCH":12982,"BSTAR":-3.7734e-5,"MEAN_MOTION_DOT":-7.13e-6,"MEAN_MOTION_DDOT":0},{"OBJECT_NAME":"STARLINK-6371","OBJECT_ID":"2023-099BF","EPOCH":"2025-11-13T13:29:11.813856","MEAN_MOTION":15.02532058,"ECCENTRICITY":0.0001157,"INCLINATION":43.0026,"RA_OF_ASC_NODE":134.2879,"ARG_OF_PERICENTER":251.5494,"MEAN_ANOMALY":108.5222,"EPHEMERIS_TYPE":0,"CLASSIFICATION_TYPE":"U","NORAD_CAT_ID":57381,"ELEMENT_SET_NO":999,"REV_AT_EPOCH":12968,"BSTAR":-6.8745e-5,"MEAN_MOTION_DOT":-1.132e-5,"MEAN_MOTION_DDOT":0},{"OBJECT_NAME":"STARLINK-30240","OBJECT_ID":"2023-102A","EPOCH":"2025-11-13T22:51:37.704672","MEAN_MOTION":15.02520828,"ECCENTRICITY":0.00012411,"INCLINATION":43.0029,"RA_OF_ASC_NODE":158.0039,"ARG_OF_PERICENTER":275.7387,"MEAN_ANOMALY":84.3314,"EPHEMERIS_TYPE":0,"CLASSIFICATION_TYPE":"U","NORAD_CAT_ID":57404,"ELEMENT_SET_NO":999,"REV_AT_EPOCH":12882,"BSTAR":-0.0001414444,"MEAN_MOTION_DOT":-2.113e-5,"MEAN_MOTION_DDOT":0},{"OBJECT_NAME":"STARLINK-30192","OBJECT_ID":"2023-102B","EPOCH":"2025-11-14T08:00:01.999872","MEAN_MOTION":15.31666979,"ECCENTRICITY":0.0002146,"INCLINATION":43.0006,"RA_OF_ASC_NODE":152.3264,"ARG_OF_PERICENTER":285.6363,"MEAN_ANOMALY":56.5923,"EPHEMERIS_TYPE":0,"CLASSIFICATION_TYPE":"U","NORAD_CAT_ID":57405,"ELEMENT_SET_NO":999,"REV_AT_EPOCH":579,"BSTAR":0.041866983,"MEAN_MOTION_DOT":0.01423292,"MEAN_MOTION_DDOT":0}]
