STARLINK-6218           
1 57368U 23099AS  25317.52616955  .00004005  00000+0  31130-3 0  9998
2 57368  43.0034 147.0449 0001260 243.8809 116.1904 15.02547769128792
STARLINK-6168           
1 57369U 23099AT  25317.53503742  .00002202  00000+0  17802-3 0  9996
2 57369  43.0028 147.1144 0001230 262.8616  97.2087 15.02545508128793
STARLINK-5353           
1 57370U 23099AU  25317.91838263 -.00000891  00000+0 -50929-4 0  9991
2 57370  43.0020 144.8242 0000981 257.7068 102.3664 15.02532367128851
STARLINK-6032           
1 57371U 23099AV  25317.59930825 -.00000960  00000+0 -55983-4 0  9995
2 57371  43.0010 146.7340 0001299 271.9123  88.1571 15.02531276128805
STARLINK-5975           
1 57372U 23099AW  25317.91061604 -.00001606  00000+0 -10388-3 0  9999
2 57372  43.0024 144.7585 0001117 276.3981  83.6734 15.02523266128856
STARLINK-6370           
1 57373U 23099AX  25317.89962374 -.00000782  00000+0 -42858-4 0  9993
2 57373  43.0040 145.5366 0001463 266.1511  93.9164 15.02530000128845
STARLINK-6369           
1 57374U 23099AY  25317.53751589  .00000005  00000+0  15452-4 0  9995
2 57374  43.0014 134.1176 0001691 269.9233  90.1415 15.02551369128945
STARLINK-6363           
1 57375U 23099AZ  25317.91726150 -.00003962  00000+0 -27823-3 0  9995
2 57375  43.0061 144.8213 0002122 270.9149  89.1450 15.02552851128850
STARLINK-6367           
1 57376U 23099BA  25317.57488507  .00010709  00000+0  80622-3 0  9990
2 57376  42.9995 146.5524 0000410 230.3985 129.6821 15.02553284128803
STARLINK-6358           
1 57377U 23099BB  25317.91169553  .00003735  00000+0  29127-3 0  9990
2 57377  43.0028 144.7797 0001463 268.2514  91.8160 15.02559203128850
STARLINK-6364           
1 57378U 23099BC  25317.79925836 -.00000841  00000+0 -47175-4 0  9992
2 57378  43.0017 119.6416 0001319 275.6549  84.4142 15.02530611129871
STARLINK-6361           
1 57379U 23099BD  25317.90837443  .00003534  00000+0  27659-3 0  9996
2 57379  43.0016 144.7545 0001252 255.5490 104.5213 15.02535789128852
STARLINK-6366           
1 57380U 23099BE  25317.53223731 -.00000713  00000+0 -37734-4 0  9990
2 57380  43.0017 121.0707 0001434 277.2900  82.7779 15.02543419129823
STARLINK-6371           
1 57381U 23099BF  25317.56194229 -.00001132  00000+0 -68745-4 0  9995
2 57381  43.0026 134.2879 0001157 251.5494 108.5222 15.02532058129686
STARLINK-30240          
1 57404U 23102A   25317.95251973 -.00002113  00000+0 -14144-3 0  9992
2 57404  43.0029 158.0039 0001241 275.7387  84.3314 15.02520828128820
STARLINK-30192          
1 57405U 23102B   25318.33335648  .01423292  00000+0  41867-1 0  9992
2 57405  43.0006 152.3264 0002146 285.6363  56.5923 15.31666979  5799
